{
  "links" : {
    "next" : "https://api.nasa.gov/neo/rest/v1/feed?start_date=2007-08-09&end_date=2007-08-09&detailed=true&api_key=t0TVs3DtDT2H8Oy2Zy8m2eVrNsAVKAexjcZXUckd",
    "prev" : "https://api.nasa.gov/neo/rest/v1/feed?start_date=2007-08-07&end_date=2007-08-07&detailed=true&api_key=t0TVs3DtDT2H8Oy2Zy8m2eVrNsAVKAexjcZXUckd",
    "self" : "https://api.nasa.gov/neo/rest/v1/feed?start_date=2007-08-08&end_date=2007-08-08&detailed=true&api_key=t0TVs3DtDT2H8Oy2Zy8m2eVrNsAVKAexjcZXUckd"
  },
  "element_count" : 10,
  "near_earth_objects" : {
    "2007-08-08" : [ {
      "links" : {
        "self" : "https://api.nasa.gov/neo/rest/v1/neo/2418198?api_key=t0TVs3DtDT2H8Oy2Zy8m2eVrNsAVKAexjcZXUckd"
      },
      "neo_reference_id" : "2418198",
      "name" : "418198 (2008 CN70)",
      "nasa_jpl_url" : "http://ssd.jpl.nasa.gov/sbdb.cgi?sstr=2418198",
      "absolute_magnitude_h" : 19.0,
      "estimated_diameter" : {
        "kilometers" : {
          "estimated_diameter_min" : 0.4212646106,
          "estimated_diameter_max" : 0.9419763057
        },
        "meters" : {
          "estimated_diameter_min" : 421.2646105562,
          "estimated_diameter_max" : 941.9763057186
        },
        "miles" : {
          "estimated_diameter_min" : 0.2617616123,
          "estimated_diameter_max" : 0.5853167591
        },
        "feet" : {
          "estimated_diameter_min" : 1382.1017848971,
          "estimated_diameter_max" : 3090.4735428537
        }
      },
      "is_potentially_hazardous_asteroid" : false,
      "close_approach_data" : [ {
        "close_approach_date" : "2007-08-08",
        "epoch_date_close_approach" : 1186556400000,
        "relative_velocity" : {
          "kilometers_per_second" : "19.4293481799",
          "kilometers_per_hour" : "69945.6534476551",
          "miles_per_hour" : "43461.5089436277"
        },
        "miss_distance" : {
          "astronomical" : "0.4322563143",
          "lunar" : "168.1477050781",
          "kilometers" : "64664624",
          "miles" : "40180736"
        },
        "orbiting_body" : "Earth"
      } ],
      "orbital_data" : {
        "orbit_id" : "27",
        "orbit_determination_date" : "2017-04-06 09:21:15",
        "orbit_uncertainty" : "1",
        "minimum_orbit_intersection" : ".089119",
        "jupiter_tisserand_invariant" : "6.790",
        "epoch_osculation" : "2458000.5",
        "eccentricity" : ".3796180454982264",
        "semi_major_axis" : ".8518399107691234",
        "inclination" : "24.45381292450054",
        "ascending_node_longitude" : "150.7160727104503",
        "orbital_period" : "287.1675763522205",
        "perihelion_distance" : ".5284661087655652",
        "perihelion_argument" : "114.3228501887263",
        "aphelion_distance" : "1.175213712772681",
        "perihelion_time" : "2458030.389950124187",
        "mean_anomaly" : "322.5292584163147",
        "mean_motion" : "1.253623422856236",
        "equinox" : "J2000"
      }
    }, {
      "links" : {
        "self" : "https://api.nasa.gov/neo/rest/v1/neo/3114030?api_key=t0TVs3DtDT2H8Oy2Zy8m2eVrNsAVKAexjcZXUckd"
      },
      "neo_reference_id" : "3114030",
      "name" : "(2002 CB19)",
      "nasa_jpl_url" : "http://ssd.jpl.nasa.gov/sbdb.cgi?sstr=3114030",
      "absolute_magnitude_h" : 25.0,
      "estimated_diameter" : {
        "kilometers" : {
          "estimated_diameter_min" : 0.02658,
          "estimated_diameter_max" : 0.0594346868
        },
        "meters" : {
          "estimated_diameter_min" : 26.58,
          "estimated_diameter_max" : 59.4346868419
        },
        "miles" : {
          "estimated_diameter_min" : 0.0165160412,
          "estimated_diameter_max" : 0.0369309908
        },
        "feet" : {
          "estimated_diameter_min" : 87.2047272,
          "estimated_diameter_max" : 194.9956979785
        }
      },
      "is_potentially_hazardous_asteroid" : false,
      "close_approach_data" : [ {
        "close_approach_date" : "2007-08-08",
        "epoch_date_close_approach" : 1186556400000,
        "relative_velocity" : {
          "kilometers_per_second" : "16.8603548271",
          "kilometers_per_hour" : "60697.2773774596",
          "miles_per_hour" : "37714.9277126776"
        },
        "miss_distance" : {
          "astronomical" : "0.0454238407",
          "lunar" : "17.6698741913",
          "kilometers" : "6795309.5",
          "miles" : "4222409.5"
        },
        "orbiting_body" : "Earth"
      } ],
      "orbital_data" : {
        "orbit_id" : "12",
        "orbit_determination_date" : "2017-04-06 09:15:27",
        "orbit_uncertainty" : "6",
        "minimum_orbit_intersection" : ".00174728",
        "jupiter_tisserand_invariant" : "4.901",
        "epoch_osculation" : "2458000.5",
        "eccentricity" : ".4520826324179339",
        "semi_major_axis" : "1.283435838410097",
        "inclination" : "17.10528493104089",
        "ascending_node_longitude" : "318.0981354025708",
        "orbital_period" : "531.0796621293149",
        "perihelion_distance" : ".7032167860421421",
        "perihelion_argument" : "88.65453345385933",
        "aphelion_distance" : "1.863654890778051",
        "perihelion_time" : "2458096.061566768473",
        "mean_anomaly" : "295.2222152535119",
        "mean_motion" : ".6778644065498821",
        "equinox" : "J2000"
      }
    }, {
      "links" : {
        "self" : "https://api.nasa.gov/neo/rest/v1/neo/3285074?api_key=t0TVs3DtDT2H8Oy2Zy8m2eVrNsAVKAexjcZXUckd"
      },
      "neo_reference_id" : "3285074",
      "name" : "(2005 OV1)",
      "nasa_jpl_url" : "http://ssd.jpl.nasa.gov/sbdb.cgi?sstr=3285074",
      "absolute_magnitude_h" : 21.7,
      "estimated_diameter" : {
        "kilometers" : {
          "estimated_diameter_min" : 0.1214940408,
          "estimated_diameter_max" : 0.2716689341
        },
        "meters" : {
          "estimated_diameter_min" : 121.4940407996,
          "estimated_diameter_max" : 271.6689340891
        },
        "miles" : {
          "estimated_diameter_min" : 0.0754928736,
          "estimated_diameter_max" : 0.1688071972
        },
        "feet" : {
          "estimated_diameter_min" : 398.6025088171,
          "estimated_diameter_max" : 891.3023057169
        }
      },
      "is_potentially_hazardous_asteroid" : false,
      "close_approach_data" : [ {
        "close_approach_date" : "2007-08-08",
        "epoch_date_close_approach" : 1186556400000,
        "relative_velocity" : {
          "kilometers_per_second" : "16.4738794436",
          "kilometers_per_hour" : "59305.9659971144",
          "miles_per_hour" : "36850.4209274848"
        },
        "miss_distance" : {
          "astronomical" : "0.4274126705",
          "lunar" : "166.2635192871",
          "kilometers" : "63940024",
          "miles" : "39730488"
        },
        "orbiting_body" : "Earth"
      } ],
      "orbital_data" : {
        "orbit_id" : "15",
        "orbit_determination_date" : "2017-04-06 09:10:44",
        "orbit_uncertainty" : "1",
        "minimum_orbit_intersection" : ".14114",
        "jupiter_tisserand_invariant" : "4.357",
        "epoch_osculation" : "2458000.5",
        "eccentricity" : ".3084755468080971",
        "semi_major_axis" : "1.55588963714396",
        "inclination" : "13.21193954954153",
        "ascending_node_longitude" : "128.0621732907853",
        "orbital_period" : "708.8700199150602",
        "perihelion_distance" : "1.075935730552925",
        "perihelion_argument" : "235.6370417913606",
        "aphelion_distance" : "2.035843543734995",
        "perihelion_time" : "2457891.209768735715",
        "mean_anomaly" : "55.50309951019943",
        "mean_motion" : ".5078505083952298",
        "equinox" : "J2000"
      }
    } ]
  }
}